LUCH 5B
1 38977U 12061A   14253.35884642 -.00000157  00000-0  00000+0 0  5606
2 38977 001.4921 085.1299 0005324 083.2876 294.0296 01.00269258  7085
YAMAL 300K
1 38978U 12061B   14253.97467828 -.00000259  00000-0  00000+0 0  5117
2 38978 000.0384 288.4894 0000916 005.4405 136.9084 01.00269797  6782
STARONE C3
1 38991U 12062A   14249.45486565 -.00000275  00000-0  10000-3 0  4662
2 38991 000.0669 088.1021 0002543 098.7097 247.4071 01.00272869  6722
EUTE 21B
1 38992U 12062B   14252.02000924  .00000000  00000-0  10000-3 0  4408
2 38992 000.0637 359.9425 0002469 131.1015 245.7461 01.00270540  6777
ECHOSTAR 16
1 39008U 12065A   14252.48746125 -.00000312  00000-0  10000-3 0  3967
2 39008 000.0088 151.1993 0002944 009.1855 302.0553 01.00271557  6703
GLOBALSTAR M001
1 25162U 98008A   14253.56635780 -.00000051  00000-0  34959-3 0  8164
2 25162 052.0018 257.5242 0001419 263.8376 248.3565 12.38052308756688
GLOBALSTAR M004
1 25163U 98008B   14253.13670308 -.00000050  00000-0  30035-3 0  9164
2 25163 051.9989 170.9528 0002632 210.9163 288.0766 12.63222278764680
GLOBALSTAR M002
1 25164U 98008C   14253.68114226 -.00000080  00000-0 -66517-4 0  8008
2 25164 052.0047 019.7144 0001051 139.5214 326.2199 11.61447386727184
GLOBALSTAR M003
1 25165U 98008D   14253.55403154 -.00000134  00000-0 -47739-3 0  8415
2 25165 051.9938 261.3088 0005605 301.4040 208.5509 12.11941740756470
GLOBALSTAR M014
1 25306U 98023A   14253.78059672 -.00000055  00000-0  43006-3 0  8139
2 25306 051.9866 025.1610 0000560 013.9560 090.4111 11.65389542732689
GLOBALSTAR M006
1 25307U 98023B   14253.48921729 -.00000079  00000-0  13649-3 0  6312
2 25307 051.9964 230.8000 0000734 031.6757 118.1877 12.62268324755599
GLOBALSTAR M015
1 25308U 98023C   14253.66457772 -.00000087  00000-0 -31177-3 0  6489
2 25308 051.9812 209.6234 0012676 284.8016 130.7440 11.48795041742476
GLOBALSTAR M008
1 25309U 98023D   14253.84138248 -.00000068  00000-0  22348-3 0  5740
2 25309 051.9967 077.3071 0002604 156.5744 307.0888 12.35931363751897
GLOBALSTAR M023
1 25621U 99004A   14252.17473905 -.00000046  00000-0  32332-3 0  6059
2 25621 052.0100 150.0798 0009621 079.0209 077.7427 12.62297191718955
GLOBALSTAR M040
1 25622U 99004B   14253.79737968  .00000082  00000-0  10415-2 0  8734
2 25622 051.9909 143.6371 0000817 024.7589 086.4435 12.61804183719087
GLOBALSTAR M036
1 25623U 99004C   14253.15951587 -.00000152  00000-0 -10054-2 0  5578
2 25623 051.9958 166.1419 0013209 079.5989 068.7814 11.86503343712083
GLOBALSTAR M038
1 25624U 99004D   14253.10145763 -.00000060  00000-0  28604-3 0  5247
2 25624 051.9961 236.7844 0001979 098.6102 336.3728 12.32395879717374
GLOBALSTAR M022
1 25649U 99012A   14253.78294169 -.00000117  00000-0 -36431-3 0  4253
2 25649 052.0033 179.8579 0002375 340.1866 057.9358 12.02399455703391
GLOBALSTAR M041
1 25650U 99012B   14253.67601333 -.00000062  00000-0  29747-3 0  5675
2 25650 052.0016 301.5928 0002653 190.9770 317.6735 11.96565218707742
GLOBALSTAR M046
1 25651U 99012C   14253.56848273 -.00000008  00000-0  88852-3 0  4985
2 25651 052.0042 274.0285 0002136 309.2264 202.6856 12.09303796708194
GLOBALSTAR M037
1 25652U 99012D   14253.57076366 -.00000081  00000-0  12877-3 0  5484
2 25652 051.9990 278.0497 0002024 115.5966 023.0010 12.62254230714671
GLOBALSTAR M045
1 25676U 99019A   14253.73241705 -.00000071  00000-0  19747-3 0  6614
2 25676 051.9995 351.8430 0000503 052.2377 068.8853 12.26915994710918
GLOBALSTAR M019
1 25677U 99019B   14253.80671897 -.00000148  00000-0 -60949-3 0  5190
2 25677 051.9867 205.9028 0001177 309.4065 135.8466 12.13773141707786
GLOBALSTAR M044
1 25678U 99019C   14253.73288800 -.00000063  00000-0  28755-3 0  5533
2 25678 051.9997 025.5770 0006315 019.8230 073.9925 11.90156455703051
GLOBALSTAR M042
1 25679U 99019D   14253.76217764 -.00000119  00000-0 -25689-3 0  5769
2 25679 052.0038 350.9731 0002753 136.5456 001.4125 12.21969075704550
GLOBALSTAR M025
1 25770U 99031A   14253.55173896 -.00000058  00000-0  30389-3 0  3154
2 25770 051.9796 269.1035 0001211 035.8318 108.7685 11.22511653697733
GLOBALSTAR M049
1 25771U 99031B   14250.10349381 -.00000000  00000-0  22635-2 0  8142
2 25771 051.9857 114.1303 0002077 004.8388 115.9605 11.12077504679512
GLOBALSTAR M047
1 25772U 99031C   14253.81950117 -.00000089  00000-0 -54052-3 0  5132
2 25772 051.9817 118.2405 0016533 352.4478 087.5688 11.31878506700580
GLOBALSTAR M052
1 25773U 99031D   14253.63892089 -.00000005  00000-0  20604-2 0  3574
2 25773 051.9848 270.0082 0002334 125.7895 035.5226 11.15010856697664
GLOBALSTAR M035
1 25851U 99037A   14250.35719304 -.00000043  00000-0  77346-3 0  2073
2 25851 051.9937 191.8666 0013914 082.7335 060.8627 11.04494705661377
GLOBALSTAR M032
1 25852U 99037B   14253.63636491 -.00000089  00000-0 -71363-3 0  3540
2 25852 051.9935 281.0812 0000456 289.6581 223.7858 11.19019348694597
GLOBALSTAR M051
1 25853U 99037C   14253.83931557 -.00000068  00000-0  99626-4 0  4533
2 25853 051.9784 166.6809 0001562 094.0349 308.8925 11.42147427683070
GLOBALSTAR M030
1 25854U 99037D   14253.13851674 -.00000038  00000-0  78476-3 0  4893
2 25854 051.9860 224.4056 0003384 164.9645 277.1929 11.55039454695656
GLOBALSTAR M048
1 25872U 99041A   14253.67848837 -.00000068  00000-0  56342-4 0  9149
2 25872 051.9374 310.0094 0013254 214.4476 290.1069 11.33797565678808
GLOBALSTAR M026
1 25873U 99041B   14253.71816082 -.00000083  00000-0  11774-3 0  5313
2 25873 052.0069 052.7577 0000449 120.8232 314.1571 12.62259677697929
GLOBALSTAR M043
1 25874U 99041C   14250.05378405 -.00000084  00000-0 -46601-3 0  8503
2 25874 051.9378 269.5328 0011673 073.3236 315.2555 11.25645519679645
GLOBALSTAR M028
1 25875U 99041D   14253.74191708 -.00000093  00000-0  58256-4 0  5092
2 25875 052.0047 052.0668 0000916 072.0157 029.4815 12.62267678697921
GLOBALSTAR M024
1 25883U 99043A   14250.10521344 -.00000041  00000-0  84036-3 0  8857
2 25883 051.9998 261.4303 0001421 119.8072 263.1170 11.10124555677751
GLOBALSTAR M027
1 25884U 99043B   14253.76869575 -.00000100  00000-0  19114-4 0  4885
2 25884 052.0065 098.7011 0001218 068.8730 010.1086 12.62271483695043
GLOBALSTAR M054
1 25885U 99043C   14253.59925505  .00000003  00000-0  18849-2 0  4303
2 25885 052.0137 287.1577 0005942 175.2448 332.1775 11.39173061671190
GLOBALSTAR M053
1 25886U 99043D   14249.76320686 -.00000060  00000-0  24744-3 0  7812
2 25886 052.0016 025.2291 0002927 221.5919 239.7755 11.27617942675517
GLOBALSTAR M058
1 25907U 99049A   14253.73304270 -.00000072  00000-0  17371-3 0  4903
2 25907 051.9929 168.5297 0000608 248.5840 150.2193 11.93076981683354
GLOBALSTAR M050
1 25908U 99049B   14253.76089855 -.00000110  00000-0 -24266-3 0  3641
2 25908 051.9982 110.0739 0009292 109.5379 326.6520 12.07355049677906
GLOBALSTAR M033
1 25909U 99049C   14253.48881830 -.00000023  00000-0  65673-3 0  4868
2 25909 051.9897 254.5549 0012522 147.9569 212.2042 12.20217185688355
GLOBALSTAR M055
1 25910U 99049D   14253.78038772 -.00000101  00000-0 -56181-4 0  4483
2 25910 052.0013 095.3788 0006443 239.0457 201.9579 12.29303284684844
GLOBALSTAR M057
1 25943U 99058A   14249.74205778 -.00000034  00000-0  53256-3 0  8793
2 25943 052.0012 358.2233 0003198 176.0529 184.0346 12.24692466684660
GLOBALSTAR M059
1 25944U 99058B   14252.16750678 -.00000078  00000-0  14202-3 0  4903
2 25944 052.0031 236.5709 0000907 028.2638 051.7678 12.62264986687061
GLOBALSTAR M056
1 25945U 99058C   14252.15561804 -.00000059  00000-0  24845-3 0  8226
2 25945 051.9970 189.7352 0000907 322.4609 141.4596 12.62274177687791
GLOBALSTAR M031
1 25946U 99058D   14253.60019995 -.00000070  00000-0  21271-3 0  4866
2 25946 051.9947 275.4035 0001420 118.3790 029.2961 12.15915199686377
GLOBALSTAR M039
1 25961U 99062A   14253.73159450 -.00000076  00000-0  15341-3 0  7739
2 25961 051.9960 003.9419 0001010 097.3140 015.8408 12.62258818683632
GLOBALSTAR M034
1 25962U 99062B   14253.72373892 -.00000073  00000-0  12090-3 0  7574
2 25962 051.9862 152.5927 0014016 168.3821 206.8112 11.79364912674379
GLOBALSTAR M029
1 25963U 99062C   14253.78964252 -.00000083  00000-0  11535-3 0  8145
2 25963 051.9925 138.8049 0000858 085.1439 302.8611 12.62263143693359
GLOBALSTAR M061
1 25964U 99062D   14253.61147147 -.00000056  00000-0  39470-3 0  5059
2 25964 051.9783 284.9559 0005734 130.2350 017.5022 11.76713482658507
GLOBALSTAR M063
1 26081U 00008A   14252.20540556 -.00000056  00000-0  26672-3 0  4652
2 26081 051.9965 190.1799 0001461 040.6257 099.3801 12.62272138681184
GLOBALSTAR M062
1 26082U 00008B   14253.77018347 -.00000112  00000-0 -10255-3 0  4333
2 26082 051.9832 137.9014 0007106 353.4717 035.4934 12.43311596669944
GLOBALSTAR M060
1 26083U 00008C   14253.75630757 -.00000036  00000-0  55170-3 0  4819
2 26083 052.0005 261.8371 0002833 024.6932 023.2445 12.17509153673508
GLOBALSTAR M064
1 26084U 00008D   14253.89827039 -.00000065  00000-0  24331-3 0  7793
2 26084 052.0075 191.5361 0001504 019.0790 317.9221 12.37076994699280
GLOBALSTAR M065
1 31571U 07020A   14253.62343405 -.00000077  00000-0  14683-3 0  2058
2 31571 051.9916 319.9239 0001471 114.9446 002.3764 12.62268031337105
GLOBALSTAR M069
1 31573U 07020C   14253.57722550 -.00000074  00000-0  16871-3 0  1211
2 31573 051.9938 275.6624 0001341 155.8376 346.7011 12.62265449337839
GLOBALSTAR M072
1 31574U 07020D   14253.77547547 -.00000079  00000-0  14055-3 0  1920
2 31574 052.0106 007.6039 0001216 119.3292 001.5009 12.62263337336369
GLOBALSTAR M071
1 31576U 07020F   14252.54573486 -.00000089  00000-0  82509-4 0  1614
2 31576 052.0055 281.0025 0000431 206.0550 276.4103 12.62267700337699
GLOBALSTAR M067
1 32263U 07048A   14253.77277991 -.00000090  00000-0  77304-4 0  1660
2 32263 051.9738 136.7885 0000593 017.9392 012.8683 12.62268721319544
GLOBALSTAR M070
1 32264U 07048B   14252.49784148 -.00000085  00000-0  10753-3 0  1170
2 32264 051.9755 231.3482 0000186 029.8103 122.4398 12.62287121317868
GLOBALSTAR M066
1 32265U 07048C   14253.75097535 -.00000104  00000-0 -22908-5 0  1639
2 32265 051.9677 091.0346 0001105 062.6726 016.3322 12.62271259320250
